CCSDS_OMM_VERS = 2.0
CREATION_DATE  = 
ORIGINATOR     = 

OBJECT_NAME    = SL-14 R/B
OBJECT_ID      = 1991-042B
CENTER_NAME    = EARTH
REF_FRAME      = TEME
TIME_SYSTEM    = UTC
MEAN_ELEMENT_THEORY = SGP/SGP4

EPOCH          = 2025-12-11T15:12:57.254400
MEAN_MOTION    = 14.81737260
ECCENTRICITY   = .00173583
INCLINATION    = 82.4925
RA_OF_ASC_NODE = 302.7598
ARG_OF_PERICENTER = 165.3040
MEAN_ANOMALY   = 194.8683

EPHEMERIS_TYPE = 0
CLASSIFICATION_TYPE = U
NORAD_CAT_ID   = 21423
ELEMENT_SET_NO = 999
REV_AT_EPOCH   = 84003
BSTAR          = .90751085E-4
MEAN_MOTION_DOT = .74E-5
MEAN_MOTION_DDOT = 0

CCSDS_OMM_VERS = 2.0
CREATION_DATE  = 
ORIGINATOR     = 

OBJECT_NAME    = ERS-1
OBJECT_ID      = 1991-050A
CENTER_NAME    = EARTH
REF_FRAME      = TEME
TIME_SYSTEM    = UTC
MEAN_ELEMENT_THEORY = SGP/SGP4

EPOCH          = 2025-12-11T11:39:20.154816
MEAN_MOTION    = 14.39363206
ECCENTRICITY   = .00329954
INCLINATION    = 98.7906
RA_OF_ASC_NODE = 356.5091
ARG_OF_PERICENTER = 103.6579
MEAN_ANOMALY   = 256.8286

EPHEMERIS_TYPE = 0
CLASSIFICATION_TYPE = U
NORAD_CAT_ID   = 21574
ELEMENT_SET_NO = 999
REV_AT_EPOCH   = 80304
BSTAR          = .19197354E-3
MEAN_MOTION_DOT = .554E-5
MEAN_MOTION_DDOT = 0

CCSDS_OMM_VERS = 2.0
CREATION_DATE  = 
ORIGINATOR     = 

OBJECT_NAME    = ARIANE 40 R/B
OBJECT_ID      = 1991-050F
CENTER_NAME    = EARTH
REF_FRAME      = TEME
TIME_SYSTEM    = UTC
MEAN_ELEMENT_THEORY = SGP/SGP4

EPOCH          = 2025-12-11T14:34:51.947616
MEAN_MOTION    = 14.42811975
ECCENTRICITY   = .0002845
INCLINATION    = 98.2165
RA_OF_ASC_NODE = 36.0788
ARG_OF_PERICENTER = 4.8067
MEAN_ANOMALY   = 355.3151

EPHEMERIS_TYPE = 0
CLASSIFICATION_TYPE = U
NORAD_CAT_ID   = 21610
ELEMENT_SET_NO = 999
REV_AT_EPOCH   = 80629
BSTAR          = .18104426E-3
MEAN_MOTION_DOT = .562E-5
MEAN_MOTION_DDOT = 0

CCSDS_OMM_VERS = 2.0
CREATION_DATE  = 
ORIGINATOR     = 

OBJECT_NAME    = INTERCOSMOS 25
OBJECT_ID      = 1991-086A
CENTER_NAME    = EARTH
REF_FRAME      = TEME
TIME_SYSTEM    = UTC
MEAN_ELEMENT_THEORY = SGP/SGP4

EPOCH          = 2025-12-11T11:30:31.735008
MEAN_MOTION    = 12.11721382
ECCENTRICITY   = .14867042
INCLINATION    = 82.6076
RA_OF_ASC_NODE = 3.3382
ARG_OF_PERICENTER = 307.1127
MEAN_ANOMALY   = 40.2872

EPHEMERIS_TYPE = 0
CLASSIFICATION_TYPE = U
NORAD_CAT_ID   = 21819
ELEMENT_SET_NO = 999
REV_AT_EPOCH   = 48600
BSTAR          = .49799337E-3
MEAN_MOTION_DOT = .2506E-4
MEAN_MOTION_DDOT = 0

CCSDS_OMM_VERS = 2.0
CREATION_DATE  = 
ORIGINATOR     = 

OBJECT_NAME    = SL-8 R/B
OBJECT_ID      = 1992-008B
CENTER_NAME    = EARTH
REF_FRAME      = TEME
TIME_SYSTEM    = UTC
MEAN_ELEMENT_THEORY = SGP/SGP4

EPOCH          = 2025-12-11T12:39:29.892384
MEAN_MOTION    = 13.75958516
ECCENTRICITY   = .00352624
INCLINATION    = 82.9264
RA_OF_ASC_NODE = 333.3482
ARG_OF_PERICENTER = 23.1308
MEAN_ANOMALY   = 95.2944

EPHEMERIS_TYPE = 0
CLASSIFICATION_TYPE = U
NORAD_CAT_ID   = 21876
ELEMENT_SET_NO = 999
REV_AT_EPOCH   = 69729
BSTAR          = .16632917E-3
MEAN_MOTION_DOT = .177E-5
MEAN_MOTION_DDOT = 0

CCSDS_OMM_VERS = 2.0
CREATION_DATE  = 
ORIGINATOR     = 

OBJECT_NAME    = SL-8 R/B
OBJECT_ID      = 1992-020B
CENTER_NAME    = EARTH
REF_FRAME      = TEME
TIME_SYSTEM    = UTC
MEAN_ELEMENT_THEORY = SGP/SGP4

EPOCH          = 2025-12-11T09:48:35.669952
MEAN_MOTION    = 13.75526748
ECCENTRICITY   = .00288035
INCLINATION    = 82.9308
RA_OF_ASC_NODE = 219.3059
ARG_OF_PERICENTER = 181.8877
MEAN_ANOMALY   = 350.9124

EPHEMERIS_TYPE = 0
CLASSIFICATION_TYPE = U
NORAD_CAT_ID   = 21938
ELEMENT_SET_NO = 999
REV_AT_EPOCH   = 68899
BSTAR          = .11378275E-3
MEAN_MOTION_DOT = .125E-5
MEAN_MOTION_DDOT = 0

CCSDS_OMM_VERS = 2.0
CREATION_DATE  = 
ORIGINATOR     = 

OBJECT_NAME    = USA 81
OBJECT_ID      = 1992-023A
CENTER_NAME    = EARTH
REF_FRAME      = TEME
TIME_SYSTEM    = UTC
MEAN_ELEMENT_THEORY = SGP/SGP4

EPOCH          = 2025-12-11T11:55:51.080736
MEAN_MOTION    = 14.32326228
ECCENTRICITY   = .00014605
INCLINATION    = 85.0081
RA_OF_ASC_NODE = 182.2930
ARG_OF_PERICENTER = 64.2787
MEAN_ANOMALY   = 295.8557

EPHEMERIS_TYPE = 0
CLASSIFICATION_TYPE = U
NORAD_CAT_ID   = 21949
ELEMENT_SET_NO = 999
REV_AT_EPOCH   = 8216
BSTAR          = .98773579E-4
MEAN_MOTION_DOT = .286E-5
MEAN_MOTION_DDOT = 0

CCSDS_OMM_VERS = 2.0
CREATION_DATE  = 
ORIGINATOR     = 

OBJECT_NAME    = COSMOS 2219
OBJECT_ID      = 1992-076A
CENTER_NAME    = EARTH
REF_FRAME      = TEME
TIME_SYSTEM    = UTC
MEAN_ELEMENT_THEORY = SGP/SGP4

EPOCH          = 2025-12-11T00:38:41.968032
MEAN_MOTION    = 14.14062458
ECCENTRICITY   = .001905
INCLINATION    = 71.0584
RA_OF_ASC_NODE = 203.4137
ARG_OF_PERICENTER = 329.1853
MEAN_ANOMALY   = 30.8150

EPHEMERIS_TYPE = 0
CLASSIFICATION_TYPE = U
NORAD_CAT_ID   = 22219
ELEMENT_SET_NO = 999
REV_AT_EPOCH   = 70584
BSTAR          = -.16510941E-4
MEAN_MOTION_DOT = -.79E-6
MEAN_MOTION_DDOT = 0

CCSDS_OMM_VERS = 2.0
CREATION_DATE  = 
ORIGINATOR     = 

OBJECT_NAME    = SL-16 R/B
OBJECT_ID      = 1992-076B
CENTER_NAME    = EARTH
REF_FRAME      = TEME
TIME_SYSTEM    = UTC
MEAN_ELEMENT_THEORY = SGP/SGP4

EPOCH          = 2025-12-11T12:50:01.032288
MEAN_MOTION    = 14.16841004
ECCENTRICITY   = .00148366
INCLINATION    = 71.0007
RA_OF_ASC_NODE = 14.0705
ARG_OF_PERICENTER = 235.8889
MEAN_ANOMALY   = 275.8197

EPHEMERIS_TYPE = 0
CLASSIFICATION_TYPE = U
NORAD_CAT_ID   = 22220
ELEMENT_SET_NO = 999
REV_AT_EPOCH   = 70934
BSTAR          = -.27122906E-4
MEAN_MOTION_DOT = -.102E-5
MEAN_MOTION_DDOT = 0

CCSDS_OMM_VERS = 2.0
CREATION_DATE  = 
ORIGINATOR     = 

OBJECT_NAME    = COSMOS 2221
OBJECT_ID      = 1992-080A
CENTER_NAME    = EARTH
REF_FRAME      = TEME
TIME_SYSTEM    = UTC
MEAN_ELEMENT_THEORY = SGP/SGP4

EPOCH          = 2025-12-11T11:31:03.787680
MEAN_MOTION    = 14.95753933
ECCENTRICITY   = .001596
INCLINATION    = 82.5049
RA_OF_ASC_NODE = 3.5314
ARG_OF_PERICENTER = 125.4844
MEAN_ANOMALY   = 234.7869

EPHEMERIS_TYPE = 0
CLASSIFICATION_TYPE = U
NORAD_CAT_ID   = 22236
ELEMENT_SET_NO = 999
REV_AT_EPOCH   = 76760
BSTAR          = .2934349E-3
MEAN_MOTION_DOT = .3303E-4
MEAN_MOTION_DDOT = 0

CCSDS_OMM_VERS = 2.0
CREATION_DATE  = 
ORIGINATOR     = 

OBJECT_NAME    = SL-16 R/B
OBJECT_ID      = 1992-093B
CENTER_NAME    = EARTH
REF_FRAME      = TEME
TIME_SYSTEM    = UTC
MEAN_ELEMENT_THEORY = SGP/SGP4

EPOCH          = 2025-12-11T07:56:10.148928
MEAN_MOTION    = 14.15428368
ECCENTRICITY   = .0002141
INCLINATION    = 71.0200
RA_OF_ASC_NODE = 189.7538
ARG_OF_PERICENTER = 76.5481
MEAN_ANOMALY   = 283.5881

EPHEMERIS_TYPE = 0
CLASSIFICATION_TYPE = U
NORAD_CAT_ID   = 22285
ELEMENT_SET_NO = 999
REV_AT_EPOCH   = 70065
BSTAR          = .18425493E-3
MEAN_MOTION_DOT = .312E-5
MEAN_MOTION_DDOT = 0

CCSDS_OMM_VERS = 2.0
CREATION_DATE  = 
ORIGINATOR     = 

OBJECT_NAME    = COSMOS 2228
OBJECT_ID      = 1992-094A
CENTER_NAME    = EARTH
REF_FRAME      = TEME
TIME_SYSTEM    = UTC
MEAN_ELEMENT_THEORY = SGP/SGP4

EPOCH          = 2025-12-11T13:17:26.960928
MEAN_MOTION    = 14.96720616
ECCENTRICITY   = .00164687
INCLINATION    = 82.5181
RA_OF_ASC_NODE = 321.6692
ARG_OF_PERICENTER = 235.7478
MEAN_ANOMALY   = 124.2185

EPHEMERIS_TYPE = 0
CLASSIFICATION_TYPE = U
NORAD_CAT_ID   = 22286
ELEMENT_SET_NO = 999
REV_AT_EPOCH   = 76287
BSTAR          = .36739722E-3
MEAN_MOTION_DOT = .4232E-4
MEAN_MOTION_DDOT = 0

