SL-14 R/B               
1 21423U 91042B   25345.63399600  .00000740  00000+0  90751-4 0  9999
2 21423  82.4925 302.7598 0017358 165.3040 194.8683 14.81737260840034
ERS-1                   
1 21574U 91050A   25345.48564994  .00000554  00000+0  19197-3 0  9995
2 21574  98.7906 356.5091 0032995 103.6579 256.8286 14.39363206803047
ARIANE 40 R/B           
1 21610U 91050F   25345.60754569  .00000562  00000+0  18104-3 0  9995
2 21610  98.2165  36.0788 0002845   4.8067 355.3151 14.42811975806299
INTERCOSMOS 25          
1 21819U 91086A   25345.47953397  .00002506  00000+0  49799-3 0  9994
2 21819  82.6076   3.3382 1486704 307.1127  40.2872 12.11721382486001
SL-8 R/B                
1 21876U 92008B   25345.52742931  .00000177  00000+0  16633-3 0  9991
2 21876  82.9264 333.3482 0035262  23.1308  95.2944 13.75958516697294
SL-8 R/B                
1 21938U 92020B   25345.40874618  .00000125  00000+0  11378-3 0  9993
2 21938  82.9308 219.3059 0028803 181.8877 350.9124 13.75526748688997
USA 81                  
1 21949U 92023A   25345.49711899  .00000286  00000+0  98774-4 0  9992
2 21949  85.0081 182.2930 0001460  64.2787 295.8557 14.32326228 82160
COSMOS 2219             
1 22219U 92076A   25345.02687463 -.00000079  00000+0 -16511-4 0  9990
2 22219  71.0584 203.4137 0019050 329.1853  30.8150 14.14062458705845
SL-16 R/B               
1 22220U 92076B   25345.53473417 -.00000102  00000+0 -27123-4 0  9998
2 22220  71.0007  14.0705 0014836 235.8889 275.8197 14.16841004709348
COSMOS 2221             
1 22236U 92080A   25345.47990495  .00003303  00000+0  29343-3 0  9992
2 22236  82.5049   3.5314 0015960 125.4844 234.7869 14.95753933767604
SL-16 R/B               
1 22285U 92093B   25345.33067302  .00000312  00000+0  18425-3 0  9993
2 22285  71.0200 189.7538 0002141  76.5481 283.5881 14.15428368700656
COSMOS 2228             
1 22286U 92094A   25345.55378427  .00004232  00000+0  36740-3 0  9997
2 22286  82.5181 321.6692 0016468 235.7478 124.2185 14.96720616762872
